start=new Date('2023-02-17T00:00:00.000Z').valueOf();
sats=[{"ARG_OF_PERICENTER":"84.6467","INCLINATION":"53.0549","MEAN_ELEMENT_THEORY":"SGP4","SEMIMAJOR_AXIS":"6925.205","NORAD_CAT_ID":"48142","TLE_LINE1":"1 48142U 21027BC  23047.61975715  .00030581  00000-0  20604-2 0  9999","LAUNCH_DATE":"2021-04-07","EPHEMERIS_TYPE":"0","PERIOD":"95.589","APOAPSIS":"548.231","MEAN_MOTION_DOT":"0.00030581","TLE_LINE2":"2 48142  53.0549 126.3429 0001677  84.6467 275.4713 15.06446828104334","OBJECT_ID":"2021-027BC","REV_AT_EPOCH":"10433","OBJECT_NAME":"STARLINK-2485","ELEMENT_SET_NO":"999","TIME_SYSTEM":"UTC","RCS_SIZE":"LARGE","OBJECT_TYPE":"PAYLOAD","DECAY_DATE":null,"REF_FRAME":"TEME","MEAN_MOTION_DDOT":"0.0000000000000","BSTAR":"0.00206040000000","FILE":"3799178","PERIAPSIS":"545.909","SITE":"AFETR","COUNTRY_CODE":"US","ECCENTRICITY":"0.00016770","CLASSIFICATION_TYPE":"U","MEAN_ANOMALY":"275.4713","RA_OF_ASC_NODE":"126.3429","GP_ID":"225685107","MEAN_MOTION":"15.06446828","CENTER_NAME":"EARTH","EPOCH":"2023-02-16T14:52:27.017760"},{"NORAD_CAT_ID":"48143","SEMIMAJOR_AXIS":"6925.385","MEAN_ELEMENT_THEORY":"SGP4","ARG_OF_PERICENTER":"90.0743","INCLINATION":"53.0543","PERIOD":"95.593","APOAPSIS":"547.872","EPHEMERIS_TYPE":"0","LAUNCH_DATE":"2021-04-07","TLE_LINE1":"1 48143U 21027BD  23047.80174738  .00001366  00000-0  11061-3 0  9994","OBJECT_NAME":"STARLINK-2486","REV_AT_EPOCH":"10498","OBJECT_ID":"2021-027BD","MEAN_MOTION_DOT":"0.00001366","TLE_LINE2":"2 48143  53.0543  80.5178 0000898  90.0743 270.0349 15.06388051104983","DECAY_DATE":null,"OBJECT_TYPE":"PAYLOAD","RCS_SIZE":"LARGE","ELEMENT_SET_NO":"999","TIME_SYSTEM":"UTC","FILE":"3799178","MEAN_MOTION_DDOT":"0.0000000000000","BSTAR":"0.00011061000000","REF_FRAME":"TEME","SITE":"AFETR","PERIAPSIS":"546.628","COUNTRY_CODE":"US","EPOCH":"2023-02-16T19:14:30.973632","CENTER_NAME":"EARTH","GP_ID":"225684855","MEAN_MOTION":"15.06388051","RA_OF_ASC_NODE":"80.5178","CLASSIFICATION_TYPE":"U","ECCENTRICITY":"0.00008980","MEAN_ANOMALY":"270.0349"},{"MEAN_MOTION_DDOT":"0.0000000000000","BSTAR":"-0.00002303200000","REF_FRAME":"TEME","FILE":"3799178","SITE":"AFETR","PERIAPSIS":"545.473","COUNTRY_CODE":"US","RA_OF_ASC_NODE":"126.0153","ECCENTRICITY":"0.00024820","CLASSIFICATION_TYPE":"U","MEAN_ANOMALY":"351.8885","EPOCH":"2023-02-16T16:38:34.296864","CENTER_NAME":"EARTH","GP_ID":"225683605","MEAN_MOTION":"15.06407010","INCLINATION":"53.0538","ARG_OF_PERICENTER":"8.2144","SEMIMAJOR_AXIS":"6925.327","NORAD_CAT_ID":"48144","MEAN_ELEMENT_THEORY":"SGP4","LAUNCH_DATE":"2021-04-07","TLE_LINE1":"1 48144U 21027BE  23047.69345251 -.00000625  00000-0 -23032-4 0  9993","PERIOD":"95.592","APOAPSIS":"548.911","EPHEMERIS_TYPE":"0","MEAN_MOTION_DOT":"-0.00000625","TLE_LINE2":"2 48144  53.0538 126.0153 0002482   8.2144 351.8885 15.06407010104333","REV_AT_EPOCH":"10433","OBJECT_NAME":"STARLINK-2487","OBJECT_ID":"2021-027BE","RCS_SIZE":"LARGE","ELEMENT_SET_NO":"999","TIME_SYSTEM":"UTC","DECAY_DATE":null,"OBJECT_TYPE":"PAYLOAD"},{"CENTER_NAME":"EARTH","EPOCH":"2023-02-16T18:19:30.500544","GP_ID":"225684356","MEAN_MOTION":"15.06377609","RA_OF_ASC_NODE":"125.7013","ECCENTRICITY":"0.00012510","CLASSIFICATION_TYPE":"U","MEAN_ANOMALY":"268.6099","COUNTRY_CODE":"US","SITE":"AFETR","PERIAPSIS":"546.416","FILE":"3799178","MEAN_MOTION_DDOT":"0.0000000000000","BSTAR":"0.00072249000000","REF_FRAME":"TEME","DECAY_DATE":null,"OBJECT_TYPE":"PAYLOAD","RCS_SIZE":"LARGE","ELEMENT_SET_NO":"999","TIME_SYSTEM":"UTC","REV_AT_EPOCH":"10435","OBJECT_NAME":"STARLINK-2488","OBJECT_ID":"2021-027BF","MEAN_MOTION_DOT":"0.00010490","TLE_LINE2":"2 48145  53.0511 125.7013 0001251  91.5033 268.6099 15.06377609104355","PERIOD":"95.594","APOAPSIS":"548.149","EPHEMERIS_TYPE":"0","LAUNCH_DATE":"2021-04-07","TLE_LINE1":"1 48145U 21027BF  23047.76354746  .00010490  00000-0  72249-3 0  9993","NORAD_CAT_ID":"48145","SEMIMAJOR_AXIS":"6925.417","MEAN_ELEMENT_THEORY":"SGP4","INCLINATION":"53.0511","ARG_OF_PERICENTER":"91.5033"},{"COUNTRY_CODE":"US","RA_OF_ASC_NODE":"145.7036","MEAN_ANOMALY":"278.8571","ECCENTRICITY":"0.00013150","CLASSIFICATION_TYPE":"U","EPOCH":"2023-02-16T18:16:47.118144","CENTER_NAME":"EARTH","MEAN_MOTION":"15.06480047","GP_ID":"225684607","BSTAR":"0.00404020000000","MEAN_MOTION_DDOT":"0.0000000000000","REF_FRAME":"TEME","FILE":"3799178","SITE":"AFETR","PERIAPSIS":"546.058","TLE_LINE2":"2 48146  53.0523 145.7036 0001315  81.2567 278.8571 15.06480047104073","MEAN_MOTION_DOT":"0.00060547","OBJECT_NAME":"STARLINK-2489","REV_AT_EPOCH":"10407","OBJECT_ID":"2021-027BG","RCS_SIZE":"LARGE","TIME_SYSTEM":"UTC","ELEMENT_SET_NO":"999","DECAY_DATE":null,"OBJECT_TYPE":"PAYLOAD","INCLINATION":"53.0523","ARG_OF_PERICENTER":"81.2567","SEMIMAJOR_AXIS":"6925.103","NORAD_CAT_ID":"48146","MEAN_ELEMENT_THEORY":"SGP4","LAUNCH_DATE":"2021-04-07","TLE_LINE1":"1 48146U 21027BG  23047.76165646  .00060547  00000-0  40402-2 0  9996","APOAPSIS":"547.879","PERIOD":"95.587","EPHEMERIS_TYPE":"0"},{"SITE":"AFETR","PERIAPSIS":"546.048","FILE":"3799178","BSTAR":"0.00284460000000","MEAN_MOTION_DDOT":"0.0000000000000","REF_FRAME":"TEME","EPOCH":"2023-02-16T18:13:29.987904","CENTER_NAME":"EARTH","MEAN_MOTION":"15.06431420","GP_ID":"225685356","RA_OF_ASC_NODE":"150.7141","MEAN_ANOMALY":"298.5089","CLASSIFICATION_TYPE":"U","ECCENTRICITY":"0.00015440","COUNTRY_CODE":"US","APOAPSIS":"548.187","PERIOD":"95.590","EPHEMERIS_TYPE":"0","LAUNCH_DATE":"2021-04-07","TLE_LINE1":"1 48147U 21027BH  23047.75937486  .00042381  00000-0  28446-2 0  9995","SEMIMAJOR_AXIS":"6925.252","MEAN_ELEMENT_THEORY":"SGP4","NORAD_CAT_ID":"48147","INCLINATION":"53.0508","ARG_OF_PERICENTER":"61.6055","DECAY_DATE":null,"OBJECT_TYPE":"PAYLOAD","RCS_SIZE":"LARGE","TIME_SYSTEM":"UTC","ELEMENT_SET_NO":"999","REV_AT_EPOCH":"10400","OBJECT_NAME":"STARLINK-2490","OBJECT_ID":"2021-027BH","TLE_LINE2":"2 48147  53.0508 150.7141 0001544  61.6055 298.5089 15.06431420104005","MEAN_MOTION_DOT":"0.00042381"},{"MEAN_MOTION_DOT":"0.00055394","TLE_LINE2":"2 48148  53.0550 146.7410 0001415  58.3853 301.7274 15.06439117104029","OBJECT_NAME":"STARLINK-2491","REV_AT_EPOCH":"10402","OBJECT_ID":"2021-027BJ","RCS_SIZE":"LARGE","ELEMENT_SET_NO":"999","TIME_SYSTEM":"UTC","DECAY_DATE":null,"OBJECT_TYPE":"PAYLOAD","INCLINATION":"53.0550","ARG_OF_PERICENTER":"58.3853","MEAN_ELEMENT_THEORY":"SGP4","SEMIMAJOR_AXIS":"6925.229","NORAD_CAT_ID":"48148","LAUNCH_DATE":"2021-04-07","TLE_LINE1":"1 48148U 21027BJ  23047.52945404  .00055394  00000-0  37047-2 0  9995","PERIOD":"95.590","APOAPSIS":"548.074","EPHEMERIS_TYPE":"0","COUNTRY_CODE":"US","RA_OF_ASC_NODE":"146.7410","ECCENTRICITY":"0.00014150","CLASSIFICATION_TYPE":"U","MEAN_ANOMALY":"301.7274","CENTER_NAME":"EARTH","EPOCH":"2023-02-16T12:42:24.829056","GP_ID":"225639087","MEAN_MOTION":"15.06439117","MEAN_MOTION_DDOT":"0.0000000000000","BSTAR":"0.00370470000000","REF_FRAME":"TEME","FILE":"3798293","SITE":"AFETR","PERIAPSIS":"546.114"},{"CLASSIFICATION_TYPE":"U","ECCENTRICITY":"0.00012060","MEAN_ANOMALY":"266.1051","RA_OF_ASC_NODE":"126.3941","GP_ID":"225683856","MEAN_MOTION":"15.06458205","EPOCH":"2023-02-16T14:36:31.472640","CENTER_NAME":"EARTH","COUNTRY_CODE":"US","PERIAPSIS":"546.200","SITE":"AFETR","REF_FRAME":"TEME","MEAN_MOTION_DDOT":"0.0000000000000","BSTAR":"0.00398260000000","FILE":"3799178","ELEMENT_SET_NO":"999","TIME_SYSTEM":"UTC","RCS_SIZE":"LARGE","OBJECT_TYPE":"PAYLOAD","DECAY_DATE":null,"MEAN_MOTION_DOT":"0.00059637","TLE_LINE2":"2 48149  53.0522 126.3941 0001206  94.0076 266.1051 15.06458205104323","OBJECT_ID":"2021-027BK","REV_AT_EPOCH":"10432","OBJECT_NAME":"STARLINK-2492","TLE_LINE1":"1 48149U 21027BK  23047.60869760  .00059637  00000-0  39826-2 0  9996","LAUNCH_DATE":"2021-04-07","EPHEMERIS_TYPE":"0","PERIOD":"95.588","APOAPSIS":"547.870","ARG_OF_PERICENTER":"94.0076","INCLINATION":"53.0522","NORAD_CAT_ID":"48149","SEMIMAJOR_AXIS":"6925.170","MEAN_ELEMENT_THEORY":"SGP4"},{"SEMIMAJOR_AXIS":"6925.429","MEAN_ELEMENT_THEORY":"SGP4","NORAD_CAT_ID":"48150","ARG_OF_PERICENTER":"65.0529","INCLINATION":"53.0547","EPHEMERIS_TYPE":"0","APOAPSIS":"548.457","PERIOD":"95.594","TLE_LINE1":"1 48150U 21027BL  23047.67874851 -.00005784  00000-0 -36997-3 0  9995","LAUNCH_DATE":"2021-04-07","OBJECT_ID":"2021-027BL","REV_AT_EPOCH":"10434","OBJECT_NAME":"STARLINK-2493","TLE_LINE2":"2 48150  53.0547 126.0705 0001679  65.0529 295.0635 15.06373689104345","MEAN_MOTION_DOT":"-0.00005784","OBJECT_TYPE":"PAYLOAD","DECAY_DATE":null,"TIME_SYSTEM":"UTC","ELEMENT_SET_NO":"999","RCS_SIZE":"LARGE","FILE":"3799178","REF_FRAME":"TEME","BSTAR":"-0.00036997000000","MEAN_MOTION_DDOT":"0.0000000000000","PERIAPSIS":"546.131","SITE":"AFETR","COUNTRY_CODE":"US","MEAN_MOTION":"15.06373689","GP_ID":"225685108","CENTER_NAME":"EARTH","EPOCH":"2023-02-16T16:17:23.871264","MEAN_ANOMALY":"295.0635","CLASSIFICATION_TYPE":"U","ECCENTRICITY":"0.00016790","RA_OF_ASC_NODE":"126.0705"},{"COUNTRY_CODE":"US","RA_OF_ASC_NODE":"126.0579","MEAN_ANOMALY":"287.3828","ECCENTRICITY":"0.00012770","CLASSIFICATION_TYPE":"U","EPOCH":"2023-02-16T16:22:40.631808","CENTER_NAME":"EARTH","MEAN_MOTION":"15.06456317","GP_ID":"225684856","BSTAR":"0.00202530000000","MEAN_MOTION_DDOT":"0.0000000000000","REF_FRAME":"TEME","FILE":"3799178","SITE":"AFETR","PERIAPSIS":"546.157","TLE_LINE2":"2 48151  53.0519 126.0579 0001277  72.7301 287.3828 15.06456317104349","MEAN_MOTION_DOT":"0.00030060","OBJECT_NAME":"STARLINK-2503","REV_AT_EPOCH":"10434","OBJECT_ID":"2021-027BM","RCS_SIZE":"LARGE","TIME_SYSTEM":"UTC","ELEMENT_SET_NO":"999","DECAY_DATE":null,"OBJECT_TYPE":"PAYLOAD","ARG_OF_PERICENTER":"72.7301","INCLINATION":"53.0519","MEAN_ELEMENT_THEORY":"SGP4","SEMIMAJOR_AXIS":"6925.176","NORAD_CAT_ID":"48151","LAUNCH_DATE":"2021-04-07","TLE_LINE1":"1 48151U 21027BM  23047.68241472  .00030060  00000-0  20253-2 0  9994","APOAPSIS":"547.925","PERIOD":"95.589","EPHEMERIS_TYPE":"0"}];
